1 25994U 99068A   08320.75430876 -.00000024  00000-0  46735-5 0  9991
2 25994 098.2262 032.7523 0000993 067.1248 293.0041 14.57094420474078
1 25994U 99068A   08320.47962745  .00000039  00000-0  18844-4 0  9999
2 25994 098.2264 032.4813 0001020 069.6783 290.4520 14.57094706474038
1 25994U 99068A   08320.20494638  .00000095  00000-0  31120-4 0  9995
2 25994 098.2265 032.2101 0001026 068.4586 291.6730 14.57094884473998
1 25994U 99068A   08319.72425396  .00000099  00000-0  32160-4 0  9994
2 25994 098.2265 031.7354 0001037 069.4699 290.6604 14.57094756473920
1 25994U 99068A   08319.51824318  .00000158  00000-0  45081-4 0  9990
2 25994 098.2264 031.5319 0001032 068.1510 291.9805 14.57094933473891
1 25994U 99068A   08319.10622153  .00000136  00000-0  40391-4 0  9993
2 25994 098.2264 031.1249 0001052 065.7903 294.3411 14.57094632473830
1 25994U 99068A   08318.83153983  .00000128  00000-0  38524-4 0  9998
2 25994 098.2267 030.8537 0001078 066.5293 293.6003 14.57094536473795
1 25994U 99068A   08318.41951793  .00000151  00000-0  43628-4 0  9994
2 25994 098.2267 030.4468 0001064 068.0711 292.0599 14.57094573473739
1 25994U 99068A   08318.14483691  .00000147  00000-0  42790-4 0  9995
2 25994 098.2267 030.1755 0001073 067.5098 292.6228 14.57094489473693
1 25994U 99068A   08317.80148495  .00000119  00000-0  36478-4 0  9992
2 25994 098.2265 029.8364 0001087 067.7306 292.3999 14.57094228473649
1 25994U 99068A   08317.45813398  .00000132  00000-0  39484-4 0  9999
2 25994 098.2263 029.4971 0001084 067.7778 292.3564 14.57094146473598
1 25994U 99068A   08317.11478229  .00000049  00000-0  20867-4 0  9994
2 25994 098.2265 029.1580 0001125 066.8187 293.3138 14.57093593473541
1 25994U 99068A   08316.77143036 -.00000009  00000-0  81024-5 0  9990
2 25994 098.2265 028.8189 0001126 066.7656 293.3658 14.57093309473499
1 25994U 99068A   08316.49674911 -.00000079  00000-0 -74287-5 0  9991
2 25994 098.2264 028.5474 0001110 066.5789 293.5530 14.57092978473458
1 25994U 99068A   08316.08472835 -.00000386  00000-0 -75725-4 0  9995
2 25994 098.2256 028.1414 0001286 061.1230 299.0121 14.57091667473399
1 25994U 99068A   08315.74137986 -.00001291  00000-0 -27661-3 0  9993
2 25994 098.2262 027.8019 0001675 057.0803 303.0665 14.57088740473347
1 25994U 99068A   08315.39803138 -.00002936  00000-0 -64219-3 0  9990
2 25994 098.2264 027.4622 0001072 049.5961 310.5589 14.57083298473292
1 25994U 99068A   08315.19201969 -.00003915  00000-0 -86005-3 0  9997
2 25994 098.2265 027.2588 0001301 063.4182 296.7231 14.57079304473266
1 25994U 99068A   08314.84866745 -.00004803  00000-0 -10575-2 0  9992
2 25994 098.2267 026.9203 0001413 073.0482 287.0956 14.57077807473210
1 25994U 99068A   08314.43664188 -.00005188  00000-0 -11432-2 0  9994
2 25994 098.2265 026.5132 0001256 067.9474 292.1896 14.57079638473150
1 25994U 99068A   08314.16195897 -.00005169  00000-0 -11389-2 0  9990
2 25994 098.2263 026.2420 0001208 063.0484 297.0890 14.57082109473111
1 25994U 99068A   08313.81860426 -.00004946  00000-0 -10893-2 0  9999
2 25994 098.2263 025.9025 0001301 064.3527 295.7774 14.57085726473062
1 25994U 99068A   08313.47524858 -.00004296  00000-0 -94441-3 0  9997
2 25994 098.2262 025.5637 0001560 068.3232 291.8016 14.57091779473016
1 25994U 99068A   08313.20056346 -.00003609  00000-0 -79169-3 0  9997
2 25994 098.2266 025.2928 0001483 066.6555 293.4583 14.57097060472973
1 25994U 99068A   08312.78853553 -.00002035  00000-0 -44174-3 0  9994
2 25994 098.2267 024.8861 0001304 067.2870 292.8170 14.57107741472911
1 25994U 99068A   08312.30784668 -.00000732  00000-0 -15230-3 0  9995
2 25994 098.2267 024.4112 0001505 074.3158 285.8063 14.57116206472848
1 25994U 99068A   08312.10183813 -.00000250  00000-0 -45374-4 0  9996
2 25994 098.2264 024.2076 0001350 076.2644 283.8650 14.57119086472817
1 25994U 99068A   08311.89583044 -.00000035 +00000-0 +23209-5 0  9995
2 25994 098.2265 024.0042 0001366 070.9330 289.1997 14.57120411472782
1 25994U 99068A   08311.75849203  .00000010  00000-0  12329-4 0  9994
2 25994 098.2266 023.8687 0001372 069.6398 290.4935 14.57120762472765
1 25994U 99068A   08311.34647748  .00000070  00000-0  25560-4 0  9996
2 25994 098.2265 023.4616 0001365 070.7924 289.3414 14.57120967472702
1 25994U 99068A   08311.14047049  .00000107  00000-0  33737-4 0  9998
2 25994 098.2267 023.2584 0001380 069.5611 290.5747 14.57121119472671
1 25994U 99068A   08310.93446318 +.00000067 +00000-0 +24933-4 0  9999
2 25994 098.2265 023.0547 0001387 070.6374 289.4967 14.57120797472641
1 25994U 99068A   08310.79712499  .00000068  00000-0  25220-4 0  9990
2 25994 098.2265 022.9190 0001385 070.8936 289.2411 14.57120857472624
1 25994U 99068A   08310.38511089  .00000064  00000-0  24325-4 0  9998
2 25994 098.2267 022.5123 0001389 070.4517 289.6844 14.57120673472566
1 25994U 99068A   08310.11043447  .00000048  00000-0  20638-4 0  9992
2 25994 098.2266 022.2410 0001409 069.9217 290.2132 14.57120479472522
1 25994U 99068A   08309.83575767  .00000026  00000-0  15801-4 0  9996
2 25994 098.2268 021.9699 0001406 070.5380 289.5950 14.57120378472487
1 25994U 99068A   08309.42374324  .00000071  00000-0  25901-4 0  9999
2 25994 098.2270 021.5633 0001415 071.0238 289.1111 14.57120562472426
1 25994U 99068A   08309.21773615  .00000085  00000-0  28874-4 0  9999
2 25994 098.2271 021.3599 0001420 071.2550 288.8813 14.57120581472393
1 25994U 99068A   08308.94305968 +.00000055 +00000-0 +22279-4 0  9990
2 25994 098.2271 021.0888 0001462 069.9556 290.1790 14.57120303472355
1 25994U 99068A   08308.80572130  .00000069  00000-0  25424-4 0  9992
2 25994 098.2271 020.9531 0001452 070.3067 289.8279 14.57120418472332
1 25994U 99068A   08308.53104508  .00000123  00000-0  37325-4 0  9996
2 25994 098.2273 020.6819 0001465 071.2532 288.8833 14.57120605472299
1 25994U 99068A   08308.18769998  .00000108  00000-0  34152-4 0  9995
2 25994 098.2272 020.3428 0001467 071.4720 288.6660 14.57120382472247
1 25994U 99068A   08307.84435403  .00000077  00000-0  27126-4 0  9996
2 25994 098.2274 020.0036 0001502 072.0213 288.1140 14.57120096472199
1 25994U 99068A   08307.22633232  .00000080  00000-0  27763-4 0  9999
2 25994 098.2276 019.3934 0001483 071.8823 288.2552 14.57120037472105
1 25994U 99068A   08307.08899410  .00000055  00000-0  22288-4 0  9994
2 25994 098.2277 019.2576 0001501 072.2352 287.9012 14.57119795472083
1 25994U 99068A   08306.74564801  .00000069  00000-0  25430-4 0  9996
2 25994 098.2276 018.9185 0001494 072.6236 287.5116 14.57119876472036
1 25994U 99068A   08306.47097157  .00000109  00000-0  34327-4 0  9991
2 25994 098.2279 018.6475 0001519 074.2969 285.8396 14.57119986471994
1 25994U 99068A   08306.19629530  .00000126  00000-0  38086-4 0  9991
2 25994 098.2279 018.3761 0001503 073.9820 286.1555 14.57119962471955
1 25994U 99068A   08305.85294977  .00000069  00000-0  25504-4 0  9993
2 25994 098.2280 018.0370 0001538 072.2532 287.8833 14.57119557471902
1 25994U 99068A   08305.50960408 -.00000006  00000-0  87270-5 0  9995
2 25994 098.2275 017.6976 0001514 074.6301 285.5070 14.57119277471858
1 25994U 99068A   08305.23492772 -.00000007  00000-0  86316-5 0  9990
2 25994 098.2276 017.4263 0001514 075.2102 284.9278 14.57119205471812
1 25994U 99068A   08304.89158152 -.00000019  00000-0  59318-5 0  9997
2 25994 098.2277 017.0870 0001529 076.4706 283.6646 14.57119020471766
1 25994U 99068A   08304.20489005  .00000103  00000-0  32911-4 0  9998
2 25994 098.2282 016.4087 0001567 077.6697 282.4683 14.57119532471664
1 25994U 99068A   08303.79287472  .00000148  00000-0  43015-4 0  9991
2 25994 098.2279 016.0015 0001549 076.7534 283.3824 14.57119613471608
1 25994U 99068A   08303.44952930  .00000188  00000-0  51886-4 0  9990
2 25994 098.2280 015.6624 0001551 076.5461 283.5917 14.57119647471557
1 25994U 99068A   08303.17485304  .00000158  00000-0  45138-4 0  9996
2 25994 098.2282 015.3912 0001579 075.8320 284.3071 14.57119429471516
1 25994U 99068A   08302.83150685  .00000124  00000-0  37581-4 0  9995
2 25994 098.2279 015.0519 0001584 076.3026 283.8338 14.57119144471465
1 25994U 99068A   08302.28215405  .00000096  00000-0  31285-4 0  9999
2 25994 098.2273 014.5089 0001553 077.0614 283.0781 14.57118943471383
1 25994U 99068A   08302.07614661 -.00000004  00000-0  91233-5 0  9993
2 25994 098.2266 014.3058 0001584 077.0214 283.1169 14.57118436471354
1 25994U 99068A   08301.93880817 -.00000039 +00000-0 +14366-5 0  9995
2 25994 098.2264 014.1701 0001596 076.8190 283.3185 14.57118271471333
1 25994U 99068A   08301.73280095 -.00000077  00000-0 -71054-5 0  9995
2 25994 098.2257 013.9665 0001595 077.6396 282.5003 14.57118198471302
1 25994U 99068A   08301.45812505 -.00000153  00000-0 -23862-4 0  9999
2 25994 098.2250 013.6942 0001554 075.9762 284.1662 14.57117814471261
1 25994U 99068A   08301.04610967 -.00000308  00000-0 -58369-4 0  9994
2 25994 098.2247 013.2874 0001617 077.9914 282.1479 14.57117045471202
1 25994U 99068A   08300.90877058 -.00000361 +00000-0 -70030-4 0  9992
2 25994 098.2250 013.1517 0001629 078.6309 281.5044 14.57116833471180
1 25994U 99068A   08300.77143177 -.00000225  00000-0 -39855-4 0  9994
2 25994 098.2245 013.0161 0001600 076.4354 283.7006 14.57117628471166
1 25994U 99068A   08300.42808666 -.00000282  00000-0 -52531-4 0  9996
2 25994 098.2243 012.6769 0001587 077.5921 282.5486 14.57117485471114
1 25994U 99068A   08300.08474042 -.00000418  00000-0 -82711-4 0  9999
2 25994 098.2242 012.3381 0001623 077.9752 282.1635 14.57117058471069
1 25994U 99068A   08299.94740161 -.00000452 +00000-0 -90298-4 0  9996
2 25994 098.2240 012.2026 0001632 078.0985 282.0382 14.57117019471045
1 25994U 99068A   08299.81006249 -.00000356  00000-0 -68959-4 0  9996
2 25994 098.2236 012.0669 0001614 077.6004 282.5342 14.57117530471025
1 25994U 99068A   08299.32937840 -.00000257  00000-0 -46938-4 0  9995
2 25994 098.2220 011.5915 0001601 078.8971 281.2410 14.57118152470952
